NORAD_CAT_ID,OBJECT_NAME,OBJECT_TYPE,EPOCH,MEAN_MOTION,ECCENTRICITY,INCLINATION,RA_OF_ASC_NODE,ARG_OF_PERICENTER,MEAN_ANOMALY,BSTAR,MEAN_MOTION_DOT,MEAN_MOTION_DDOT,TLE_LINE0,TLE_LINE1,TLE_LINE2,SEMIMAJOR_AXIS,PERIOD,APOGEE,PERIGEE,DECAYED
52304.0,STARLINK-3744,PAYLOAD,2022-11-25 01:01:14,15.0884299,0.0001871,53.2185,79.03699999999998,40.9662,319.147,1.6223e-05,-3e-07,0.0,0 STARLINK-3744,1 52304U 22041AV  22329.04252496 -.00000030  00000-0  16223-4 0  9995,2 52304  53.2185  79.0370 0001871  40.9662 319.1470 15.08842990 34604,6917.871,95.437,541.031,538.442,0.0
52304.0,STARLINK-3744,PAYLOAD,2022-11-25 12:08:56,15.0883845,0.0002101,53.2181,76.9547,43.8401,316.2758,-4.4291000000000014e-05,-9.93e-06,0.0,0 STARLINK-3744,1 52304U 22041AV  22329.50620839 -.00000993  00000-0 -44291-4 0  9991,2 52304  53.2181  76.9547 0002101  43.8401 316.2758 15.08838450 33457,6917.885,95.438,541.2040000000002,538.297,0.0
52304.0,STARLINK-3744,PAYLOAD,2022-11-25 13:44:19,15.08842607,0.0001915,53.218,76.6556,54.4482,305.6689,-9.3291e-05,-1.773e-05,0.0,0 STARLINK-3744,1 52304U 22041AV  22329.57244660 -.00001773  00000-0 -93291-4 0  9993,2 52304  53.2180  76.6556 0001915  54.4482 305.6689 15.08842607 33467,6917.871999999999,95.437,541.062,538.413,0.0
52304.0,STARLINK-3744,PAYLOAD,2022-11-26 07:13:33,15.08834436,0.0001693,53.22,73.384,45.3785,314.7345,0.00019211,2.77e-05,0.0,0 STARLINK-3744,1 52304U 22041AV  22330.30108155  .00002770  00000-0  19211-3 0  9999,2 52304  53.2200  73.3840 0001693  45.3785 314.7345 15.08834436 34796,6917.897,95.438,540.934,538.591,0.0
52304.0,STARLINK-3744,PAYLOAD,2022-11-26 13:35:06,15.08836776,0.0002044,53.2181,72.1964,45.5164,314.5995,8.798e-05,1.112e-05,0.0,0 STARLINK-3744,1 52304U 22041AV  22330.56604498  .00001112  00000-0  87980-4 0  9996,2 52304  53.2181  72.1964 0002044  45.5164 314.5995 15.08836776 33610,6917.89,95.438,541.169,538.341,0.0
52304.0,STARLINK-3744,PAYLOAD,2022-11-26 16:45:52,15.08838194,0.0001876,53.2195,71.6016,50.8948,309.2211,8.3355e-05,1.039e-05,0.0,0 STARLINK-3744,1 52304U 22041AV  22330.69852401  .00001039  00000-0  83355-4 0  9999,2 52304  53.2195  71.6016 0001876  50.8948 309.2211 15.08838194 33638,6917.886,95.438,541.049,538.453,0.0
52304.0,STARLINK-3744,PAYLOAD,2022-11-27 07:04:20,15.08836481,0.0001963,53.2186,68.9259,42.1776,317.9367,3.0626e-05,1.99e-06,0.0,0 STARLINK-3744,1 52304U 22041AV  22331.29468650  .00000199  00000-0  30626-4 0  9994,2 52304  53.2186  68.9259 0001963  42.1776 317.9367 15.08836481 33721,6917.891,95.438,541.114,538.398,0.0
52304.0,STARLINK-3744,PAYLOAD,2022-11-27 16:36:40,15.08827258,0.0001972,53.2192,67.1432,36.2661,323.8465,-2.4525e-05,-6.78e-06,0.0,0 STARLINK-3744,1 52304U 22041AV  22331.69213619 -.00000678  00000-0 -24525-4 0  9996,2 52304  53.2192  67.1432 0001972  36.2661 323.8465 15.08827258 35009,6917.919,95.438,541.149,538.42,0.0
52304.0,STARLINK-3744,PAYLOAD,2022-11-28 13:16:41,15.08829602,0.0002026,53.2193,63.2767,39.0701,321.0437,-6.9802e-05,-1.399e-05,0.0,0 STARLINK-3744,1 52304U 22041AV  22332.55325978 -.00001399  00000-0 -69802-4 0  9992,2 52304  53.2193  63.2767 0002026  39.0701 321.0437 15.08829602 33917,6917.9119999999975,95.438,541.179,538.376,0.0
52304.0,STARLINK-3744,PAYLOAD,2022-11-28 22:49:00,15.08835612,0.0002047,53.2197,61.4928,39.3058,320.8082,-5.2919e-05,-1.13e-05,0.0,0 STARLINK-3744,1 52304U 22041AV  22332.95069738 -.00001130  00000-0 -52919-4 0  9999,2 52304  53.2197  61.4928 0002047  39.3058 320.8082 15.08835612 35194,6917.894,95.438,541.175,538.3430000000002,0.0
52304.0,STARLINK-3744,PAYLOAD,2022-11-29 06:45:55,15.08829107,0.0002059,53.2193,60.0059,36.4446,323.6686,0.00016633,2.359e-05,0.0,0 STARLINK-3744,1 52304U 22041AV  22333.28189362  .00002359  00000-0  16633-3 0  9996,2 52304  53.2193  60.0059 0002059  36.4446 323.6686 15.08829107 34026,6917.9140000000025,95.438,541.203,538.354,0.0
52304.0,STARLINK-3744,PAYLOAD,2022-11-29 16:18:14,15.08835619,0.0002034,53.2195,58.2222,35.427,324.6857,9.4432e-05,1.215e-05,0.0,0 STARLINK-3744,1 52304U 22041AV  22333.67933395  .00001215  00000-0  94432-4 0  9996,2 52304  53.2195  58.2222 0002034  35.4270 324.6857 15.08835619 34088,6917.894,95.438,541.1659999999998,538.352,0.0
52304.0,STARLINK-3744,PAYLOAD,2022-11-30 06:36:43,15.08823511,0.0002079,53.2194,55.5456,35.0198,325.0931,2.1935e-05,6.1e-07,0.0,0 STARLINK-3744,1 52304U 22041AV  22334.27550786  .00000061  00000-0  21935-4 0  9998,2 52304  53.2194  55.5456 0002079  35.0198 325.0931 15.08823511 35391,6917.931,95.439,541.234,538.3580000000002,0.0
52304.0,STARLINK-3744,PAYLOAD,2022-11-30 09:47:30,15.08825417,0.0002062,53.2197,54.951,37.1725,322.941,1.9397e-05,2e-07,0.0,0 STARLINK-3744,1 52304U 22041AV  22334.40798795  .00000020  00000-0  19397-4 0  9991,2 52304  53.2197  54.9510 0002062  37.1725 322.9410 15.08825417 34191,6917.925,95.438,541.216,538.363,0.0
52304.0,STARLINK-3744,PAYLOAD,2022-11-30 22:30:34,15.08834267,0.000221,53.2193,52.572,38.5566,321.5583,7.2923e-05,8.72e-06,0.0,0 STARLINK-3744,1 52304U 22041AV  22334.93790367  .00000872  00000-0  72923-4 0  9995,2 52304  53.2193  52.5720 0002210  38.5566 321.5583 15.08834267 35490,6917.898,95.438,541.2919999999998,538.234,0.0
52304.0,STARLINK-3744,PAYLOAD,2022-12-01 04:52:06,15.08843904,0.0002185,53.2188,51.3823,38.2202,321.8945,3.4859e-05,2.67e-06,0.0,0 STARLINK-3744,1 52304U 22041AV  22335.20285879  .00000267  00000-0  34859-4 0  9997,2 52304  53.2188  51.3823 0002185  38.2202 321.8945 15.08843904 34313,6917.868,95.437,541.245,538.222,0.0
52304.0,STARLINK-3744,PAYLOAD,2022-12-01 22:21:21,15.088371300000002,0.0002278,53.2194,48.1111,40.917,319.1993,6.260800000000001e-05,7.08e-06,0.0,0 STARLINK-3744,1 52304U 22041AV  22335.93150208  .00000708  00000-0  62608-4 0  9997,2 52304  53.2194  48.1111 0002278  40.9170 319.1993 15.08837130 35645,6917.889,95.438,541.33,538.178,0.0
52304.0,STARLINK-3744,PAYLOAD,2022-12-02 11:04:26,15.08836136,0.0002073,53.2189,45.7316,39.7114,320.403,4.119100000000001e-05,3.67e-06,0.0,0 STARLINK-3744,1 52304U 22041AV  22336.46142259  .00000367  00000-0  41191-4 0  9998,2 52304  53.2189  45.7316 0002073  39.7114 320.4030 15.08836136 34502,6917.892,95.438,541.191,538.323,0.0
52304.0,STARLINK-3744,PAYLOAD,2022-12-03 10:55:13,15.08841065,0.0002024,53.2191,41.2713,35.5594,324.5533,1.9895e-05,2.8e-07,0.0,0 STARLINK-3744,1 52304U 22041AV  22337.45501851  .00000028  00000-0  19895-4 0  9995,2 52304  53.2191  41.2713 0002024  35.5594 324.5533 15.08841065 35870,6917.877,95.437,541.1419999999998,538.342,0.0
52304.0,STARLINK-3744,PAYLOAD,2022-12-03 15:41:23,15.08836259,0.0002066,53.2184,40.3788,37.162,322.9515,-1.1149e-05,-4.66e-06,0.0,0 STARLINK-3744,1 52304U 22041AV  22337.65374256 -.00000466  00000-0 -11149-4 0  9996,2 52304  53.2184  40.3788 0002066  37.1620 322.9515 15.08836259 34687,6917.892,95.438,541.186,538.328,0.0
52304.0,STARLINK-3744,PAYLOAD,2022-12-04 10:46:00,15.08845312,0.000215,53.2182,36.8108,35.648,324.4656,-0.00016583,-2.927e-05,0.0,0 STARLINK-3744,1 52304U 22041AV  22338.44862106 -.00002927  00000-0 -16583-3 0  9990,2 52304  53.2182  36.8108 0002150  35.6480 324.4656 15.08845312 34809,6917.864000000001,95.437,541.216,538.242,0.0
52304.0,STARLINK-3744,PAYLOAD,2022-12-04 15:32:10,15.08830569,0.000224,53.2188,35.9199,34.0192,326.0943,-5.6919e-05,-1.194e-05,0.0,0 STARLINK-3744,1 52304U 22041AV  22338.64734843 -.00001194  00000-0 -56919-4 0  9991,2 52304  53.2188  35.9199 0002240  34.0192 326.0943 15.08830569 34836,6917.909000000002,95.438,541.3240000000002,538.225,0.0
52304.0,STARLINK-3744,PAYLOAD,2022-12-05 02:39:52,15.08834422,0.0002179,53.2202,33.8369,33.5204,326.5925,-2.9768e-05,-7.62e-06,0.0,0 STARLINK-3744,1 52304U 22041AV  22339.11102640 -.00000762  00000-0 -29768-4 0  9990,2 52304  53.2202  33.8369 0002179  33.5204 326.5925 15.08834422 36129,6917.897,95.438,541.27,538.255,0.0
52304.0,STARLINK-3744,PAYLOAD,2022-12-05 10:36:47,15.08847868,0.0002249,53.2196,32.3523,32.5244,327.5887,8.260799999999999e-05,1.027e-05,0.0,0 STARLINK-3744,1 52304U 22041AV  22339.44221302  .00001027  00000-0  82608-4 0  9998,2 52304  53.2196  32.3523 0002249  32.5244 327.5887 15.08847868 36179,6917.856,95.437,541.2769999999998,538.1659999999998,0.0
52304.0,STARLINK-3744,PAYLOAD,2022-12-05 20:09:06,15.08844646,0.0002322,53.2189,30.5684,31.2246,328.8884,6.9668e-07,-2.77e-06,0.0,0 STARLINK-3744,1 52304U 22041AV  22339.83965681 -.00000277  00000-0  69668-6 0  9996,2 52304  53.2189  30.5684 0002322  31.2246 328.8884 15.08844646 35013,6917.866,95.437,541.3380000000002,538.125,0.0
52304.0,STARLINK-3744,PAYLOAD,2022-12-06 04:06:02,15.08838184,0.0002374,53.2188,29.0812,30.1929,329.9199,3.5235e-05,2.72e-06,0.0,0 STARLINK-3744,1 52304U 22041AV  22340.17085972  .00000272  00000-0  35235-4 0  9996,2 52304  53.2188  29.0812 0002374  30.1929 329.9199 15.08838184 36282,6917.886,95.438,541.393,538.109,0.0
52304.0,STARLINK-3744,PAYLOAD,2022-12-06 10:27:35,15.08833895,0.0002387,53.2193,27.8918,32.5546,327.5593,-6.480599999999999e-06,-3.91e-06,0.0,0 STARLINK-3744,1 52304U 22041AV  22340.43582439 -.00000391  00000-0 -64806-5 0  9996,2 52304  53.2193  27.8918 0002387  32.5546 327.5593 15.08833895 35102,6917.899,95.438,541.415,538.113,0.0
52304.0,STARLINK-3744,PAYLOAD,2022-12-07 02:21:26,15.08833398,0.0002318,53.22,24.9186,36.2267,323.8882,-2.4127e-05,-6.72e-06,0.0,0 STARLINK-3744,1 52304U 22041AV  22341.09822699 -.00000672  00000-0 -24127-4 0  9997,2 52304  53.2200  24.9186 0002318  36.2267 323.8882 15.08833398 36425,6917.901,95.438,541.369,538.1619999999998,0.0
52304.0,STARLINK-3744,PAYLOAD,2022-12-07 10:18:23,15.08817711,0.0002496,53.2205,23.4327,349.1486,10.9452,-0.00014899,-2.657e-05,0.0,0 STARLINK-3744,1 52304U 22041AV  22341.42944387 -.00002657  00000-0 -14899-3 0  9992,2 52304  53.2205  23.4327 0002496 349.1486  10.9452 15.08817711 36470,6917.949000000001,95.439,541.54,538.087,0.0
